NORAD_CAT_ID,OBJECT_NAME,OBJECT_TYPE,EPOCH,MEAN_MOTION,ECCENTRICITY,INCLINATION,RA_OF_ASC_NODE,ARG_OF_PERICENTER,MEAN_ANOMALY,BSTAR,MEAN_MOTION_DOT,MEAN_MOTION_DDOT,TLE_LINE0,TLE_LINE1,TLE_LINE2,SEMIMAJOR_AXIS,PERIOD,APOGEE,PERIGEE,DECAYED
50175.0,STARLINK-3291,PAYLOAD,2023-06-02 06:52:55,15.08811016,0.0001276,53.2168,109.4801,88.7971,271.3167,0.00037081,5.614e-05,0.0,0 STARLINK-3291,1 50175U 21125V   23153.28675698  .00005614  00000-0  37081-3 0  9992,2 50175  53.2168 109.4801 0001276  88.7971 271.3167 15.08811016 83429,6917.969,95.439,540.717,538.951,0.0
50175.0,STARLINK-3291,PAYLOAD,2023-06-03 03:32:56,15.08826378,0.0001107,53.2176,105.6126,91.0021,269.1098,0.00021776,3.178e-05,0.0,0 STARLINK-3291,1 50175U 21125V   23154.14787122  .00003178  00000-0  21776-3 0  9991,2 50175  53.2176 105.6126 0001107  91.0021 269.1098 15.08826378 83551,6917.922,95.438,540.553,539.021,0.0
50175.0,STARLINK-3291,PAYLOAD,2023-06-03 21:02:11,15.08833531,0.000125,53.2177,102.3419,82.0061,278.1073,1.4798e-05,-5.2e-07,0.0,0 STARLINK-3291,1 50175U 21125V   23154.87651668 -.00000052  00000-0  14798-4 0  9992,2 50175  53.2177 102.3419 0001250  82.0061 278.1073 15.08833531 84153,6917.9,95.438,540.63,538.9,0.0
50175.0,STARLINK-3291,PAYLOAD,2023-06-04 03:23:43,15.08837947,0.0001201,53.2172,101.1523,80.7033,279.4095,4.7999e-05,4.76e-06,0.0,0 STARLINK-3291,1 50175U 21125V   23155.14147352  .00000476  00000-0  47999-4 0  9991,2 50175  53.2172 101.1523 0001201  80.7033 279.4095 15.08837947 84198,6917.887,95.438,540.583,538.921,0.0
50175.0,STARLINK-3291,PAYLOAD,2023-06-04 20:52:58,15.08835998,0.0001192,53.2172,97.8826,82.1707,277.942,5.8839e-06,-1.94e-06,0.0,0 STARLINK-3291,1 50175U 21125V   23155.87011809 -.00000194  00000-0  58839-5 0  9992,2 50175  53.2172  97.8826 0001192  82.1707 277.9420 15.08835998 84300,6917.893,95.438,540.582,538.933,0.0
50175.0,STARLINK-3291,PAYLOAD,2023-06-05 03:14:30,15.08837546,0.0001203,53.2175,96.6934,82.1996,277.9133,1.7279e-05,-1.3e-07,0.0,0 STARLINK-3291,1 50175U 21125V   23156.13507724 -.00000013  00000-0  17279-4 0  9990,2 50175  53.2175  96.6934 0001203  82.1996 277.9133 15.08837546 83854,6917.888,95.438,540.585,538.921,0.0
50175.0,STARLINK-3291,PAYLOAD,2023-06-05 06:25:16,15.08840565,0.0001198,53.2176,96.0987,81.3733,278.7395,4.0727e-05,3.6e-06,0.0,0 STARLINK-3291,1 50175U 21125V   23156.26755453  .00000360  00000-0  40727-4 0  9996,2 50175  53.2176  96.0987 0001198  81.3733 278.7395 15.08840565 84361,6917.879,95.438,540.572,538.915,0.0
50175.0,STARLINK-3291,PAYLOAD,2023-06-05 20:43:45,15.08834909,0.0001131,53.217,93.422,84.3479,275.7642,9.9177e-06,-1.3e-06,0.0,0 STARLINK-3291,1 50175U 21125V   23156.86372083 -.00000130  00000-0  99177-5 0  9996,2 50175  53.2170  93.4220 0001131  84.3479 275.7642 15.08834909 84450,6917.896,95.438,540.543,538.979,0.0
50175.0,STARLINK-3291,PAYLOAD,2023-06-06 04:40:40,15.08841663,0.0001261,53.2176,91.9348,90.9377,269.1759,7.3618e-05,8.84e-06,0.0,0 STARLINK-3291,1 50175U 21125V   23157.19491489  .00000884  00000-0  73618-4 0  9991,2 50175  53.2176  91.9348 0001261  90.9377 269.1759 15.08841663 84017,6917.875,95.437,540.613,538.868,0.0
50175.0,STARLINK-3291,PAYLOAD,2023-06-06 06:16:03,15.08841981,0.000126,53.2175,91.6375,91.1447,268.9689,7.639e-05,9.28e-06,0.0,0 STARLINK-3291,1 50175U 21125V   23157.26115457  .00000928  00000-0  76390-4 0  9996,2 50175  53.2175  91.6375 0001260  91.1447 268.9689 15.08841981 84510,6917.874,95.437,540.611,538.868,0.0
50175.0,STARLINK-3291,PAYLOAD,2023-06-06 20:34:32,15.08834503,0.0001264,53.2174,88.9604,92.0771,268.0366,-1.2932e-05,-4.94e-06,0.0,0 STARLINK-3291,1 50175U 21125V   23157.85732388 -.00000494  00000-0 -12932-4 0  9991,2 50175  53.2174  88.9604 0001264  92.0771 268.0366 15.08834503 84602,6917.897,95.438,540.637,538.888,0.0
50175.0,STARLINK-3291,PAYLOAD,2023-06-07 04:31:28,15.0883812,0.0001442,53.2186,87.4726,89.9044,270.2113,1.558e-05,-4e-07,0.0,0 STARLINK-3291,1 50175U 21125V   23158.18852164 -.00000040  00000-0  15580-4 0  9991,2 50175  53.2186  87.4726 0001442  89.9044 270.2113 15.08838120 84165,6917.886,95.438,540.749,538.754,0.0
50175.0,STARLINK-3291,PAYLOAD,2023-06-07 18:49:56,15.08833016,0.0001384,53.2178,84.7975,91.3545,268.7605,1.1473e-05,-1.05e-06,0.0,0 STARLINK-3291,1 50175U 21125V   23158.78468686 -.00000105  00000-0  11473-4 0  9998,2 50175  53.2178  84.7975 0001384  91.3545 268.7605 15.08833016 84741,6917.902,95.438,540.724,538.809,0.0
50175.0,STARLINK-3291,PAYLOAD,2023-06-08 04:22:15,15.08842205,0.000124,53.2177,83.0139,88.195,271.9184,3.4987e-05,2.69e-06,0.0,0 STARLINK-3291,1 50175U 21125V   23159.18212072  .00000269  00000-0  34987-4 0  9994,2 50175  53.2177  83.0139 0001240  88.1950 271.9184 15.08842205 84804,6917.874,95.437,540.596,538.881,0.0
50175.0,STARLINK-3291,PAYLOAD,2023-06-08 23:26:52,15.08838794,0.0001286,53.2184,79.4458,90.3904,269.7236,0.00020879,3.036e-05,0.0,0 STARLINK-3291,1 50175U 21125V   23159.97699710  .00003036  00000-0  20879-3 0  9998,2 50175  53.2184  79.4458 0001286  90.3904 269.7236 15.08838794 84439,6917.884,95.438,540.639,538.859,0.0
50175.0,STARLINK-3291,PAYLOAD,2023-06-09 01:02:15,15.0884833,0.0001326,53.2179,79.1487,88.1569,271.9575,0.00010419,1.371e-05,0.0,0 STARLINK-3291,1 50175U 21125V   23160.04323379  .00001371  00000-0  10419-3 0  9992,2 50175  53.2179  79.1487 0001326  88.1569 271.9575 15.08848330 84448,6917.855,95.437,540.637,538.803,0.0
50175.0,STARLINK-3291,PAYLOAD,2023-06-09 12:09:57,15.08845507,0.0001193,53.2169,77.0726,72.6052,287.507,3.0879e-05,2.04e-06,0.0,0 STARLINK-3291,1 50175U 21125V   23160.50691727  .00000204  00000-0  30879-4 0  9995,2 50175  53.2169  77.0726 0001193  72.6052 287.5070 15.08845507 85006,6917.864,95.437,540.554,538.903,0.0
50175.0,STARLINK-3291,PAYLOAD,2023-06-09 18:31:30,15.08840956,0.0001283,53.2189,75.8775,98.7761,261.3376,2.0581e-06,-2.55e-06,0.0,0 STARLINK-3291,1 50175U 21125V   23160.77188127 -.00000255  00000-0  20581-5 0  9996,2 50175  53.2189  75.8775 0001283  98.7761 261.3376 15.08840956 84555,6917.877,95.437,540.63,538.855,0.0
50175.0,STARLINK-3291,PAYLOAD,2023-06-10 04:03:49,15.08842692,0.0001218,53.2184,74.0926,107.8451,252.2674,1.9792e-05,2.7e-07,0.0,0 STARLINK-3291,1 50175U 21125V   23161.16931852  .00000027  00000-0  19792-4 0  9998,2 50175  53.2184  74.0926 0001218 107.8451 252.2674 15.08842692 85106,6917.872,95.437,540.58,538.895,0.0
50175.0,STARLINK-3291,PAYLOAD,2023-06-10 18:22:17,15.08837948,0.0001324,53.2179,71.416,124.7467,235.365,-4.4792e-05,-1.001e-05,0.0,0 STARLINK-3291,1 50175U 21125V   23161.76548300 -.00001001  00000-0 -44792-4 0  9999,2 50175  53.2179  71.4160 0001324 124.7467 235.3650 15.08837948 85197,6917.887,95.438,540.668,538.836,0.0
50175.0,STARLINK-3291,PAYLOAD,2023-06-11 03:54:36,15.08844525,0.0001066,53.2176,69.6341,101.3713,258.7399,-5.1107e-05,-1.101e-05,0.0,0 STARLINK-3291,1 50175U 21125V   23162.16292009 -.00001101  00000-0 -51107-4 0  9995,2 50175  53.2176  69.6341 0001066 101.3713 258.7399 15.08844525 84762,6917.867,95.437,540.469,538.994,0.0
50175.0,STARLINK-3291,PAYLOAD,2023-06-11 18:13:05,15.08833247,0.0001062,53.2182,66.9581,90.3136,269.7978,2.2861e-05,7.6e-07,0.0,0 STARLINK-3291,1 50175U 21125V   23162.75908653  .00000076  00000-0  22861-4 0  9992,2 50175  53.2182  66.9581 0001062  90.3136 269.7978 15.08833247 85346,6917.901,95.438,540.501,539.031,0.0
50175.0,STARLINK-3291,PAYLOAD,2023-06-12 03:45:23,15.08843285,0.0001009,53.2178,65.1734,91.2092,268.9016,9.4469e-05,1.216e-05,0.0,0 STARLINK-3291,1 50175U 21125V   23163.15651823  .00001216  00000-0  94469-4 0  9991,2 50175  53.2178  65.1734 0001009  91.2092 268.9016 15.08843285 85408,6917.87,95.437,540.433,539.037,0.0
50175.0,STARLINK-3291,PAYLOAD,2023-06-12 19:39:15,15.08830475,9.18e-05,53.2192,62.1998,88.3849,271.7248,6.5574e-06,-1.83e-06,0.0,0 STARLINK-3291,1 50175U 21125V   23163.81893085 -.00000183  00000-0  65574-5 0  9991,2 50175  53.2192  62.1998 0000918  88.3849 271.7248 15.08830475 85011,6917.91,95.438,540.41,539.139,0.0
50175.0,STARLINK-3291,PAYLOAD,2023-06-13 02:00:47,15.0883675,9.35e-05,53.219,61.0111,85.1187,274.9912,6.1452e-05,6.9e-06,0.0,0 STARLINK-3291,1 50175U 21125V   23164.08388668  .00000690  00000-0  61452-4 0  9999,2 50175  53.2190  61.0111 0000935  85.1187 274.9912 15.08836750 85052,6917.89,95.438,540.402,539.109,0.0
50175.0,STARLINK-3291,PAYLOAD,2023-06-13 13:08:29,15.0883535,0.0001044,53.2186,58.9292,93.2547,266.8564,4.4703e-05,4.24e-06,0.0,0 STARLINK-3291,1 50175U 21125V   23164.54756866  .00000424  00000-0  44703-4 0  9994,2 50175  53.2186  58.9292 0001044  93.2547 266.8564 15.08835350 85614,6917.895,95.438,540.482,539.037,0.0
50175.0,STARLINK-3291,PAYLOAD,2023-06-14 11:23:54,15.08822933,0.000137,53.2184,54.7675,92.0057,268.1092,0.00026277,3.895e-05,0.0,0 STARLINK-3291,1 50175U 21125V   23165.47493335  .00003895  00000-0  26277-3 0  9996,2 50175  53.2184  54.7675 0001370  92.0057 268.1092 15.08822933 85261,6917.933,95.439,540.745,538.85,0.0
50175.0,STARLINK-3291,PAYLOAD,2023-06-14 19:20:49,15.08825548,0.0001167,53.2182,53.281,92.5952,267.5174,0.00014938,2.089e-05,0.0,0 STARLINK-3291,1 50175U 21125V   23165.80613265  .00002089  00000-0  14938-3 0  9994,2 50175  53.2182  53.2810 0001167  92.5952 267.5174 15.08825548 85806,6917.925,95.438,540.597,538.982,0.0
50175.0,STARLINK-3291,PAYLOAD,2023-06-15 11:14:41,15.08812662,0.0001319,53.2181,50.3088,76.4022,283.7117,0.00044551,6.804e-05,0.0,0 STARLINK-3291,1 50175U 21125V   23166.46853833  .00006804  00000-0  44551-3 0  9997,2 50175  53.2181  50.3088 0001319  76.4022 283.7117 15.08812662 85909,6917.964,95.439,540.741,538.916,0.0
50175.0,STARLINK-3291,PAYLOAD,2023-06-15 22:22:21,15.08896966,0.0001024,53.2183,48.227,51.5666,308.5418,-0.0007048,-0.00011505,0.0,0 STARLINK-3291,1 50175U 21125V   23166.93219171 -.00011505  00000-0 -70480-3 0  9996,2 50175  53.2183  48.2270 0001024  51.5666 308.5418 15.08896966 85483,6917.706,95.434,540.28,538.863,0.0
